[
    {
        "Altitude(m)": 553815.7479128967,
        "Argument of Periapsis(deg)": 0.013245982221427002,
        "Eccentricity": 0.0,
        "Inclination(deg)": 53.0,
        "Latitude(deg)": 19.966157904454807,
        "Longitude(deg)": 127.62416460937068,
        "Mean Anomaly(deg)": 154.72868573515518,
        "RAAN(deg)": 64.98028673705603,
        "Satellite Name": "Starlink Shell 1 294",
        "Satellite Number": 294,
        "Semi-Major Axis(m)": 6931778.249405717,
        "Time(s)": 380
    },
    {
        "Altitude(m)": 553777.7019496721,
        "Argument of Periapsis(deg)": 0.013594560700938237,
        "Eccentricity": 0.0,
        "Inclination(deg)": 53.0,
        "Latitude(deg)": 19.481102530560964,
        "Longitude(deg)": 128.00776833858222,
        "Mean Anomaly(deg)": 155.3555169387119,
        "RAAN(deg)": 64.97976796697857,
        "Satellite Name": "Starlink Shell 1 294",
        "Satellite Number": 294,
        "Semi-Major Axis(m)": 6931778.249405717,
        "Time(s)": 390
    },
    {
        "Altitude(m)": 553741.7806186236,
        "Argument of Periapsis(deg)": 0.013943139180449475,
        "Eccentricity": 0.0,
        "Inclination(deg)": 53.0,
        "Latitude(deg)": 18.995032980431752,
        "Longitude(deg)": 128.3888473712265,
        "Mean Anomaly(deg)": 155.9823481422686,
        "RAAN(deg)": 64.9792491969011,
        "Satellite Name": "Starlink Shell 1 294",
        "Satellite Number": 294,
        "Semi-Major Axis(m)": 6931778.249405717,
        "Time(s)": 400
    },
    {
        "Altitude(m)": 553708.0228776707,
        "Argument of Periapsis(deg)": 0.014291717659960712,
        "Eccentricity": 0.0,
        "Inclination(deg)": 53.0,
        "Latitude(deg)": 18.507982087971133,
        "Longitude(deg)": 128.76747927113823,
        "Mean Anomaly(deg)": 156.6091793458253,
        "RAAN(deg)": 64.9787304268236,
        "Satellite Name": "Starlink Shell 1 294",
        "Satellite Number": 294,
        "Semi-Major Axis(m)": 6931778.249405717,
        "Time(s)": 410
    },
    {
        "Altitude(m)": 553676.4667476575,
        "Argument of Periapsis(deg)": 0.014640296139471948,
        "Eccentricity": 0.0,
        "Inclination(deg)": 53.0,
        "Latitude(deg)": 18.019982129287065,
        "Longitude(deg)": 129.1437400943912,
        "Mean Anomaly(deg)": 157.23601054938203,
        "RAAN(deg)": 64.97821165674615,
        "Satellite Name": "Starlink Shell 1 294",
        "Satellite Number": 294,
        "Semi-Major Axis(m)": 6931778.249405717,
        "Time(s)": 420
    },
    {
        "Altitude(m)": 553647.1492909872,
        "Argument of Periapsis(deg)": 0.014988874618983185,
        "Eccentricity": 0.0,
        "Inclination(deg)": 53.0,
        "Latitude(deg)": 17.531064842782396,
        "Longitude(deg)": 129.51770491931464,
        "Mean Anomaly(deg)": 157.86284175293872,
        "RAAN(deg)": 64.97769288666866,
        "Satellite Name": "Starlink Shell 1 294",
        "Satellite Number": 294,
        "Semi-Major Axis(m)": 6931778.249405717,
        "Time(s)": 430
    },
    {
        "Altitude(m)": 553620.106590648,
        "Argument of Periapsis(deg)": 0.015337453098494424,
        "Eccentricity": 0.0,
        "Inclination(deg)": 53.0,
        "Latitude(deg)": 17.041261448799727,
        "Longitude(deg)": 129.88944837680936,
        "Mean Anomaly(deg)": 158.48967295649547,
        "RAAN(deg)": 64.97717411659119,
        "Satellite Name": "Starlink Shell 1 294",
        "Satellite Number": 294,
        "Semi-Major Axis(m)": 6931778.249405717,
        "Time(s)": 440
    },
    {
        "Altitude(m)": 553595.3737297656,
        "Argument of Periapsis(deg)": 0.01568603157800566,
        "Eccentricity": 0.0,
        "Inclination(deg)": 53.0,
        "Latitude(deg)": 16.550602668833076,
        "Longitude(deg)": 130.25904366803982,
        "Mean Anomaly(deg)": 159.1165041600522,
        "RAAN(deg)": 64.97665534651372,
        "Satellite Name": "Starlink Shell 1 294",
        "Satellite Number": 294,
        "Semi-Major Axis(m)": 6931778.249405717,
        "Time(s)": 450
    },
    {
        "Altitude(m)": 553572.9847715759,
        "Argument of Periapsis(deg)": 0.0160346100575169,
        "Eccentricity": 0.0,
        "Inclination(deg)": 53.0,
        "Latitude(deg)": 16.05911874431516,
        "Longitude(deg)": 130.62656309520565,
        "Mean Anomaly(deg)": 159.7433353636089,
        "RAAN(deg)": 64.97613657643625,
        "Satellite Name": "Starlink Shell 1 294",
        "Satellite Number": 294,
        "Semi-Major Axis(m)": 6931778.249405717,
        "Time(s)": 460
    },
    {
        "Altitude(m)": 553552.9727399257,
        "Argument of Periapsis(deg)": 0.016383188537028134,
        "Eccentricity": 0.0,
        "Inclination(deg)": 53.0,
        "Latitude(deg)": 15.566839454994184,
        "Longitude(deg)": 130.99207859247724,
        "Mean Anomaly(deg)": 160.37016656716563,
        "RAAN(deg)": 64.97561780635877,
        "Satellite Name": "Starlink Shell 1 294",
        "Satellite Number": 294,
        "Semi-Major Axis(m)": 6931778.249405717,
        "Time(s)": 470
    },
    {
        "Altitude(m)": 553535.3696002415,
        "Argument of Periapsis(deg)": 0.01673176701653937,
        "Eccentricity": 0.0,
        "Inclination(deg)": 53.0,
        "Latitude(deg)": 15.073794136912195,
        "Longitude(deg)": 131.35566074418668,
        "Mean Anomaly(deg)": 160.99699777072232,
        "RAAN(deg)": 64.9750990362813,
        "Satellite Name": "Starlink Shell 1 294",
        "Satellite Number": 294,
        "Semi-Major Axis(m)": 6931778.249405717,
        "Time(s)": 480
    },
    {
        "Altitude(m)": 553520.2062410277,
        "Argument of Periapsis(deg)": 0.017080345496050607,
        "Eccentricity": 0.0,
        "Inclination(deg)": 53.0,
        "Latitude(deg)": 14.580011699996042,
        "Longitude(deg)": 131.71737931598727,
        "Mean Anomaly(deg)": 161.62382897427906,
        "RAAN(deg)": 64.97458026620383,
        "Satellite Name": "Starlink Shell 1 294",
        "Satellite Number": 294,
        "Semi-Major Axis(m)": 6931778.249405717,
        "Time(s)": 490
    },
    {
        "Altitude(m)": 553507.512455848,
        "Argument of Periapsis(deg)": 0.017428923975561842,
        "Eccentricity": 0.0,
        "Inclination(deg)": 53.0,
        "Latitude(deg)": 14.085520645273583,
        "Longitude(deg)": 132.07730378607954,
        "Mean Anomaly(deg)": 162.25066017783575,
        "RAAN(deg)": 64.97406149612635,
        "Satellite Name": "Starlink Shell 1 294",
        "Satellite Number": 294,
        "Semi-Major Axis(m)": 6931778.249405717,
        "Time(s)": 500
    },
    {
        "Altitude(m)": 553497.316925885,
        "Argument of Periapsis(deg)": 0.01777750245507308,
        "Eccentricity": 0.0,
        "Inclination(deg)": 53.0,
        "Latitude(deg)": 13.590349081729407,
        "Longitude(deg)": 132.4355023636034,
        "Mean Anomaly(deg)": 162.87749138139247,
        "RAAN(deg)": 64.97354272604889,
        "Satellite Name": "Starlink Shell 1 294",
        "Satellite Number": 294,
        "Semi-Major Axis(m)": 6931778.249405717,
        "Time(s)": 510
    },
    {
        "Altitude(m)": 553489.6472030033,
        "Argument of Periapsis(deg)": 0.018126080934584315,
        "Eccentricity": 0.0,
        "Inclination(deg)": 53.0,
        "Latitude(deg)": 13.094524742809817,
        "Longitude(deg)": 132.79204251992087,
        "Mean Anomaly(deg)": 163.5043225849492,
        "RAAN(deg)": 64.97302395597141,
        "Satellite Name": "Starlink Shell 1 294",
        "Satellite Number": 294,
        "Semi-Major Axis(m)": 6931778.249405717,
        "Time(s)": 520
    },
    {
        "Altitude(m)": 553484.529693349,
        "Argument of Periapsis(deg)": 0.018474659414095554,
        "Eccentricity": 0.0,
        "Inclination(deg)": 53.0,
        "Latitude(deg)": 12.598075002591125,
        "Longitude(deg)": 133.146991519895,
        "Mean Anomaly(deg)": 164.1311537885059,
        "RAAN(deg)": 64.97250518589394,
        "Satellite Name": "Starlink Shell 1 294",
        "Satellite Number": 294,
        "Semi-Major Axis(m)": 6931778.249405717,
        "Time(s)": 530
    },
    {
        "Altitude(m)": 553481.9896415485,
        "Argument of Periapsis(deg)": 0.018823237893606792,
        "Eccentricity": 0.0,
        "Inclination(deg)": 53.0,
        "Latitude(deg)": 12.101026891624754,
        "Longitude(deg)": 133.5004154402743,
        "Mean Anomaly(deg)": 164.7579849920626,
        "RAAN(deg)": 64.97198641581647,
        "Satellite Name": "Starlink Shell 1 294",
        "Satellite Number": 294,
        "Semi-Major Axis(m)": 6931778.249405717,
        "Time(s)": 540
    },
    {
        "Altitude(m)": 553482.0511154355,
        "Argument of Periapsis(deg)": 0.019171816373118027,
        "Eccentricity": 0.0,
        "Inclination(deg)": 53.0,
        "Latitude(deg)": 11.603407112469466,
        "Longitude(deg)": 133.85237970091333,
        "Mean Anomaly(deg)": 165.38481619561935,
        "RAAN(deg)": 64.971467645739,
        "Satellite Name": "Starlink Shell 1 294",
        "Satellite Number": 294,
        "Semi-Major Axis(m)": 6931778.249405717,
        "Time(s)": 550
    },
    {
        "Altitude(m)": 553484.7369913571,
        "Argument of Periapsis(deg)": 0.019520394852629266,
        "Eccentricity": 0.0,
        "Inclination(deg)": 53.0,
        "Latitude(deg)": 11.105242054924954,
        "Longitude(deg)": 134.20294959594338,
        "Mean Anomaly(deg)": 166.01164739917607,
        "RAAN(deg)": 64.97094887566152,
        "Satellite Name": "Starlink Shell 1 294",
        "Satellite Number": 294,
        "Semi-Major Axis(m)": 6931778.249405717,
        "Time(s)": 560
    }
]